SL-14 R/B               
1 20262U 89080C   25255.52137837  .00000169  00000+0  49600-4 0  9990
2 20262  82.5903 287.5961 1229710 231.9856 116.3896 12.50341534637889
DELTA 1 R/B             
1 20323U 89089B   25255.58237526  .00000229  00000+0  65745-4 0  9994
2 20323  97.0895 126.2119 0068408 326.4871  33.2007 14.50460132869913
ARIANE 40 R/B           
1 20443U 90005H   25255.42012124  .00000199  00000+0  77258-4 0  9993
2 20443  98.3375 316.1175 0010535  28.0212 332.1542 14.39694627867151
DELTA 2 R/B(1)          
1 20453U 90008B   25255.28382728  .00021276  00000+0  42816-3 0  9991
2 20453  35.6075 247.5663 0124729  67.1063 294.2780 15.37634557898512
COSMOS 2058             
1 20465U 90010A   25255.50561625  .00003074  00000+0  19031-3 0  9996
2 20465  82.4747 222.6752 0008617 215.2683 144.7977 15.09441877915343
SL-14 R/B               
1 20466U 90010B   25255.21026428  .00000374  00000+0  42579-4 0  9996
2 20466  82.4991  74.9866 0020247 164.0307 196.1550 14.83331508902025
SL-14 R/B               
1 20511U 90018B   25254.85399584  .00000406  00000+0  48281-4 0  9992
2 20511  82.5226  30.2254 0015560 324.6656  35.3525 14.81915306896094
HST                     
1 20580U 90037B   25254.12582267  .00005383  00000+0  19366-3 0  9991
2 20580  28.4680 182.0172 0002180 304.3836  55.6552 15.26272782745820
SL-16 R/B               
1 20625U 90046B   25255.55184431  .00000311  00000+0  18519-3 0  9995
2 20625  71.0000 312.0253 0015581 221.7654 138.2280 14.14977698823191
COSMOS 2084             
1 20663U 90055A   25255.44919344  .00001905  00000+0  14810-3 0  9994
2 20663  62.7893 222.8465 0047103 163.8008 196.4611 15.04156696909496
SL-6 R/B(2)             
1 20666U 90055D   25254.93757524  .00001543  00000+0  13057-3 0  9990
2 20666  62.7828 141.1801 0014038 225.0626 134.9335 15.02395250911326
SL-8 R/B                
1 20775U 90078B   25255.39938882  .00009966  00000+0  32607-3 0  9994
2 20775  82.9072  50.7101 0391579 250.4255 105.4298 14.80745529782834
SL-8 R/B                
1 21088U 91006B   25255.61165500  .00000041  00000+0  25972-4 0  9991
2 21088  82.9414 302.5241 0022791 170.5141 353.6494 13.77470908739555
OKEAN-3                 
1 21397U 91039A   25254.78220950  .00002878  00000+0  21017-3 0  9993
2 21397  82.5189 149.9919 0013214 214.7538 145.2826 15.03256780838149
COSMOS 2151             
1 21422U 91042A   25255.53123142  .00001536  00000+0  12405-3 0  9996
2 21422  82.4935 255.3581 0010997 306.4329  53.5880 14.99137129836491
SL-14 R/B               
1 21423U 91042B   25254.87007322  .00000435  00000+0  52174-4 0  9999
2 21423  82.4946  27.8524 0018493 107.4625 252.8612 14.81614916826592
ERS-1                   
1 21574U 91050A   25254.90429841  .00000243  00000+0  92811-4 0  9992
2 21574  98.7945 263.6314 0032358  14.7127 345.4994 14.39257113790012
ARIANE 40 R/B           
1 21610U 91050F   25255.58822668  .00000228  00000+0  81273-4 0  9995
2 21610  98.2308 309.2419 0001979 240.6344 119.4649 14.42699066793313
INTERCOSMOS 25          
1 21819U 91086A   25255.55453474  .00002156  00000+0  41912-3 0  9994
2 21819  82.6021  57.6521 1489578 140.7814 231.1352 12.11313854475119
SL-8 R/B                
1 21876U 92008B   25254.91949626  .00000017  00000+0  24315-5 0  9994
2 21876  82.9270  40.7198 0033386 274.1432 199.3483 13.75938718684837
SL-8 R/B                
1 21938U 92020B   25254.61626876  .00000002  00000+0 -14347-4 0  9991
2 21938  82.9272 286.7512 0030400  78.5038  34.7984 13.75519496676514
USA 81                  
1 21949U 92023A   25255.23668159  .00000153  00000+0  49432-4 0  9994
2 21949  85.0051 234.3383 0001318 103.7334 256.4005 14.32272119 69241
COSMOS 2219             
1 22219U 92076A   25255.61183273  .00000085  00000+0  69529-4 0  9997
2 22219  71.0629  30.3187 0015934 114.6096 245.6689 14.14048771693201
SL-16 R/B               
1 22220U 92076B   25255.59298836 -.00000090  00000+0 -20753-4 0  9992
2 22220  70.9994 203.5200 0012812 356.1558 176.8075 14.16817191696607
COSMOS 2221             
1 22236U 92080A   25255.48571761  .00001397  00000+0  12453-3 0  9999
2 22236  82.5009  89.6219 0015992  72.9570 287.3402 14.95181409754152
SL-16 R/B               
1 22285U 92093B   25255.57775190  .00000063  00000+0  56691-4 0  9991
2 22285  71.0244  18.1582 0005948 237.1690 122.8861 14.15412245687950
COSMOS 2228             
1 22286U 92094A   25255.54898626  .00002011  00000+0  17619-3 0  9991
2 22286  82.5176  47.7274 0018408 177.6395 182.4917 14.96067735749416
SL-16 R/B               
1 22566U 93016B   25255.38838472  .00000176  00000+0  11490-3 0  9993
2 22566  71.0063 229.6562 0012202 241.1869 118.8029 14.15268678676949
COSMOS 2242             
1 22626U 93024A   25255.45776423  .00001630  00000+0  14461-3 0  9991
2 22626  82.5157  77.0386 0016538 179.9685 180.1541 14.95491263753747
SL-16 R/B               
1 22803U 93059B   25255.60993165  .00000223  00000+0  13414-3 0  9991
2 22803  70.9922  26.6496 0015220 125.8420 234.4120 14.17191087654304
ARIANE 40 R/B           
1 22830U 93061H   25255.48271775  .00000159  00000+0  74463-4 0  9996
2 22830  98.5190 322.6226 0011913  92.5109 267.7439 14.32708741668581
COSMOS 2278             
1 23087U 94023A   25255.51172924  .00000004  00000+0  26768-4 0  9994
2 23087  71.0530 187.8638 0010770 294.5438  65.4562 14.14313739619616
SL-16 R/B               
1 23088U 94023B   25255.49880872  .00000245  00000+0  15143-3 0  9991
2 23088  70.9980  85.0946 0004670 230.9156 129.1551 14.14977713620883
SL-16 R/B               
1 23343U 94074B   25255.57569312  .00000348  00000+0  53596-4 0  9992
2 23343  97.7332 288.4377 0008111  83.4645  76.7277 14.79133040660918
SL-16 R/B               
1 23405U 94077B   25255.54992330  .00000110  00000+0  80640-4 0  9998
2 23405  70.9860   7.2510 0000791  16.4320 343.6829 14.15532828591025
ARIANE 40+ R/B          
1 23561U 95021B   25255.47087787  .00000199  00000+0  77850-4 0  9990
2 23561  98.4760 324.1145 0005905 323.7265  46.9425 14.39590200593606
SL-16 R/B               
1 23705U 95058B   25255.54806123 -.00000237  00000+0 -96869-4 0  9997
2 23705  71.0216 194.2515 0011595  20.5540 339.6047 14.15462120542649
SL-16 R/B               
1 24298U 96051B   25254.91546313 -.00000134  00000+0 -45839-4 0  9998
2 24298  70.7622 193.6268 0013817  30.0482 330.1427 14.12394862496406
ORBVIEW 2 (SEASTAR)     
1 24883U 97037A   25255.17899950  .00000217  00000+0  92077-4 0  9996
2 24883  98.8384  49.9931 0001675 199.8876 160.2244 14.35310262482863
SL-16 R/B               
1 25400U 98043G   25255.58329088  .00000049  00000+0  39478-4 0  9994
2 25400  98.7947 202.9726 0010010 164.9919 195.1559 14.25990712413605
SL-16 R/B               
1 25407U 98045B   25254.93997549  .00000173  00000+0  11147-3 0  9994
2 25407  71.0115 197.4694 0009594 291.7886  68.2216 14.16154810401790
ISS (ZARYA)             
1 25544U 98067A   25255.41795246  .00007121  00000+0  13147-3 0  9996
2 25544  51.6331 234.7166 0004272 330.8995  29.1755 15.50252392528695
CZ-4B R/B               
1 25732U 99025C   25254.76189803  .00000041  00000+0  40500-4 0  9991
2 25732  98.6918 298.0237 0037914 138.2262 335.5077 14.18210410362802
OKEAN-O                 
1 25860U 99039A   25254.70935082  .00000585  00000+0  84405-4 0  9995
2 25860  97.9746 311.1448 0001372 116.6583 243.4769 14.79931325407910
SL-16 R/B               
1 25861U 99039B   25255.40198929  .00000423  00000+0  60959-4 0  9994
2 25861  98.0270 309.4814 0016168 114.0075 246.2832 14.81390243410466
DELTA 2 R/B             
1 25876U 99041E   25255.49860154  .00000959  00000+0  19322-3 0  9999
2 25876  51.7626 292.5370 0505720 182.7274 177.0874 14.11109892337862
HELIOS 1B               
1 25977U 99064A   25255.42334847  .00001165  00000+0  13750-3 0  9993
2 25977  98.1813 147.4031 0000569  49.3578 310.7686 14.86741030658765
TERRA                   
1 25994U 99068A   25255.58867451  .00000332  00000+0  77142-4 0  9996
2 25994  97.9894 310.5469 0003089  51.8227 109.2497 14.60795421369076
SL-16 R/B               
1 26070U 00006B   25255.61567157 -.00000149  00000+0 -51608-4 0  9997
2 26070  71.0016 112.2559 0014223  92.5811 267.6941 14.15789602323359
TITAN 4B R/B            
1 26474U 00047B   25255.55916412  .00002627  00000+0  17597-3 0  9994
2 26474  67.9900 180.7301 0047518 243.9324 115.6930 15.07743543366041
ENVISAT                 
1 27386U 02009A   25255.62861449  .00000097  00000+0  45311-4 0  9999
2 27386  98.3424 208.7599 0001204  89.2639  83.7966 14.38947265233569
IDEFIX & ARIANE 42P R/B 
1 27422U 02021B   25255.53944235  .00000229  00000+0  10392-3 0  9996
2 27422  98.5636 191.4902 0011933 358.2450   1.8689 14.30847432218544
AQUA                    
1 27424U 02022A   25255.58474755  .00000799  00000+0  17110-3 0  9996
2 27424  98.3871 215.0807 0001965  95.5968  24.1044 14.61473549242718
CZ-4B R/B               
1 27432U 02024C   25254.77045456  .00000031  00000+0  38792-4 0  9998
2 27432  98.9150 303.7897 0050411 169.8451 300.8651 14.14501178203947
MIDORI II (ADEOS-II)    
1 27597U 02056A   25254.86090647  .00000225  00000+0  10667-3 0  9992
2 27597  98.7459 207.4190 0001717 118.2373 241.8982 14.29107089184758
H-2A R/B                
1 27601U 02056E   25255.41223228  .00000282  00000+0  11395-3 0  9995
2 27601  98.2895 217.8824 0069948 333.9743 197.8687 14.33573277188565
CZ-4B R/B               
1 28059U 03049C   25254.91701086  .00000363  00000+0  95119-4 0  9990
2 28059  98.6691 238.0518 0049435  58.0664 302.5325 14.54760913160609
CZ-2C R/B               
1 28222U 04012C   25255.54762096  .00019552  00000+0  37179-3 0  9992
2 28222  97.7574 301.1205 0020208 237.7495 122.1796 15.48069727176582
SL-16 R/B               
1 28353U 04021B   25255.25924914 -.00000241  00000+0 -10076-3 0  9998
2 28353  70.9980 246.9338 0007232 297.6992  62.3396 14.14560475 97607
